ONEWEB-0080             
1 45426U 20020C   24346.42575993 -.00000238  00000+0 -70744-3 0  9997
2 45426  87.8892 131.2094 0001056  92.1574 267.9675 13.11414852230259
ONEWEB-0090             
1 45427U 20020D   24346.44270333 -.00000430  00000+0 -12494-2 0  9991
2 45427  87.8899 131.1971 0001470  97.9313 262.1982 13.11415941230229
ONEWEB-0061             
1 45428U 20020E   24346.47480341  .00000499  00000+0  13717-2 0  9999
2 45428  87.8893 131.1812 0001427  95.4952 264.6338 13.11416651230188
ONEWEB-0081             
1 45429U 20020F   24346.45628233  .00000033  00000+0  57127-4 0  9991
2 45429  87.8898 131.2040 0001514  88.7748 271.3554 13.11418369230298
ONEWEB-0069             
1 45430U 20020G   24346.44610321 -.00000385  00000+0 -11224-2 0  9999
2 45430  87.8896 131.1955 0001379 101.0737 259.0546 13.11417990230224
ONEWEB-0031             
1 45431U 20020H   24346.49358664  .00000101  00000+0  25039-3 0  9998
2 45431  87.8899 131.2045 0001469 101.3965 258.7328 13.11414625230210
ONEWEB-0027             
1 45432U 20020J   24346.41544805  .00000035  00000+0  56618-4 0  9999
2 45432  87.9092 115.9718 0001642 112.6579 247.4726 13.17652211233561
ONEWEB-0064             
1 45433U 20020K   24346.49188969  .00000198  00000+0  52317-3 0  9994
2 45433  87.8894 131.2061 0001375 104.3852 255.7428 13.11414411230243
