<?xml version="1.0" encoding="UTF-8"?>
<ndm xmlns:xsi="http://www.w3.org/2001/XMLSchema-instance" xsi:noNamespaceSchemaLocation="https://sanaregistry.org/r/ndmxml_unqualified/ndmxml-2.0.0-master-2.0.xsd">
<omm id="CCSDS_OMM_VERS" version="2.0">
<header><CREATION_DATE/><ORIGINATOR/></header><body><segment><metadata><OBJECT_NAME>ONEWEB-0080</OBJECT_NAME><OBJECT_ID>2020-020C</OBJECT_ID><CENTER_NAME>EARTH</CENTER_NAME><REF_FRAME>TEME</REF_FRAME><TIME_SYSTEM>UTC</TIME_SYSTEM><MEAN_ELEMENT_THEORY>SGP4</MEAN_ELEMENT_THEORY></metadata><data><meanElements><EPOCH>2024-12-11T10:13:05.657952</EPOCH><MEAN_MOTION>13.11414852</MEAN_MOTION><ECCENTRICITY>.0001056</ECCENTRICITY><INCLINATION>87.8892</INCLINATION><RA_OF_ASC_NODE>131.2094</RA_OF_ASC_NODE><ARG_OF_PERICENTER>92.1574</ARG_OF_PERICENTER><MEAN_ANOMALY>267.9675</MEAN_ANOMALY></meanElements><tleParameters><EPHEMERIS_TYPE>0</EPHEMERIS_TYPE><CLASSIFICATION_TYPE>U</CLASSIFICATION_TYPE><NORAD_CAT_ID>45426</NORAD_CAT_ID><ELEMENT_SET_NO>999</ELEMENT_SET_NO><REV_AT_EPOCH>23025</REV_AT_EPOCH><BSTAR>-.70744E-3</BSTAR><MEAN_MOTION_DOT>-.238E-5</MEAN_MOTION_DOT><MEAN_MOTION_DDOT>0</MEAN_MOTION_DDOT></tleParameters></data></segment></body></omm>
<omm id="CCSDS_OMM_VERS" version="2.0">
<header><CREATION_DATE/><ORIGINATOR/></header><body><segment><metadata><OBJECT_NAME>ONEWEB-0090</OBJECT_NAME><OBJECT_ID>2020-020D</OBJECT_ID><CENTER_NAME>EARTH</CENTER_NAME><REF_FRAME>TEME</REF_FRAME><TIME_SYSTEM>UTC</TIME_SYSTEM><MEAN_ELEMENT_THEORY>SGP4</MEAN_ELEMENT_THEORY></metadata><data><meanElements><EPOCH>2024-12-11T10:37:29.567712</EPOCH><MEAN_MOTION>13.11415941</MEAN_MOTION><ECCENTRICITY>.000147</ECCENTRICITY><INCLINATION>87.8899</INCLINATION><RA_OF_ASC_NODE>131.1971</RA_OF_ASC_NODE><ARG_OF_PERICENTER>97.9313</ARG_OF_PERICENTER><MEAN_ANOMALY>262.1982</MEAN_ANOMALY></meanElements><tleParameters><EPHEMERIS_TYPE>0</EPHEMERIS_TYPE><CLASSIFICATION_TYPE>U</CLASSIFICATION_TYPE><NORAD_CAT_ID>45427</NORAD_CAT_ID><ELEMENT_SET_NO>999</ELEMENT_SET_NO><REV_AT_EPOCH>23022</REV_AT_EPOCH><BSTAR>-.12494E-2</BSTAR><MEAN_MOTION_DOT>-.43E-5</MEAN_MOTION_DOT><MEAN_MOTION_DDOT>0</MEAN_MOTION_DDOT></tleParameters></data></segment></body></omm>
<omm id="CCSDS_OMM_VERS" version="2.0">
<header><CREATION_DATE/><ORIGINATOR/></header><body><segment><metadata><OBJECT_NAME>ONEWEB-0061</OBJECT_NAME><OBJECT_ID>2020-020E</OBJECT_ID><CENTER_NAME>EARTH</CENTER_NAME><REF_FRAME>TEME</REF_FRAME><TIME_SYSTEM>UTC</TIME_SYSTEM><MEAN_ELEMENT_THEORY>SGP4</MEAN_ELEMENT_THEORY></metadata><data><meanElements><EPOCH>2024-12-11T11:23:43.014624</EPOCH><MEAN_MOTION>13.11416651</MEAN_MOTION><ECCENTRICITY>.0001427</ECCENTRICITY><INCLINATION>87.8893</INCLINATION><RA_OF_ASC_NODE>131.1812</RA_OF_ASC_NODE><ARG_OF_PERICENTER>95.4952</ARG_OF_PERICENTER><MEAN_ANOMALY>264.6338</MEAN_ANOMALY></meanElements><tleParameters><EPHEMERIS_TYPE>0</EPHEMERIS_TYPE><CLASSIFICATION_TYPE>U</CLASSIFICATION_TYPE><NORAD_CAT_ID>45428</NORAD_CAT_ID><ELEMENT_SET_NO>999</ELEMENT_SET_NO><REV_AT_EPOCH>23018</REV_AT_EPOCH><BSTAR>.13717E-2</BSTAR><MEAN_MOTION_DOT>.499E-5</MEAN_MOTION_DOT><MEAN_MOTION_DDOT>0</MEAN_MOTION_DDOT></tleParameters></data></segment></body></omm>
<omm id="CCSDS_OMM_VERS" version="2.0">
<header><CREATION_DATE/><ORIGINATOR/></header><body><segment><metadata><OBJECT_NAME>ONEWEB-0081</OBJECT_NAME><OBJECT_ID>2020-020F</OBJECT_ID><CENTER_NAME>EARTH</CENTER_NAME><REF_FRAME>TEME</REF_FRAME><TIME_SYSTEM>UTC</TIME_SYSTEM><MEAN_ELEMENT_THEORY>SGP4</MEAN_ELEMENT_THEORY></metadata><data><meanElements><EPOCH>2024-12-11T10:57:02.793312</EPOCH><MEAN_MOTION>13.11418369</MEAN_MOTION><ECCENTRICITY>.0001514</ECCENTRICITY><INCLINATION>87.8898</INCLINATION><RA_OF_ASC_NODE>131.2040</RA_OF_ASC_NODE><ARG_OF_PERICENTER>88.7748</ARG_OF_PERICENTER><MEAN_ANOMALY>271.3554</MEAN_ANOMALY></meanElements><tleParameters><EPHEMERIS_TYPE>0</EPHEMERIS_TYPE><CLASSIFICATION_TYPE>U</CLASSIFICATION_TYPE><NORAD_CAT_ID>45429</NORAD_CAT_ID><ELEMENT_SET_NO>999</ELEMENT_SET_NO><REV_AT_EPOCH>23029</REV_AT_EPOCH><BSTAR>.57127E-4</BSTAR><MEAN_MOTION_DOT>.33E-6</MEAN_MOTION_DOT><MEAN_MOTION_DDOT>0</MEAN_MOTION_DDOT></tleParameters></data></segment></body></omm>
<omm id="CCSDS_OMM_VERS" version="2.0">
<header><CREATION_DATE/><ORIGINATOR/></header><body><segment><metadata><OBJECT_NAME>ONEWEB-0069</OBJECT_NAME><OBJECT_ID>2020-020G</OBJECT_ID><CENTER_NAME>EARTH</CENTER_NAME><REF_FRAME>TEME</REF_FRAME><TIME_SYSTEM>UTC</TIME_SYSTEM><MEAN_ELEMENT_THEORY>SGP4</MEAN_ELEMENT_THEORY></metadata><data><meanElements><EPOCH>2024-12-11T10:42:23.317344</EPOCH><MEAN_MOTION>13.11417990</MEAN_MOTION><ECCENTRICITY>.0001379</ECCENTRICITY><INCLINATION>87.8896</INCLINATION><RA_OF_ASC_NODE>131.1955</RA_OF_ASC_NODE><ARG_OF_PERICENTER>101.0737</ARG_OF_PERICENTER><MEAN_ANOMALY>259.0546</MEAN_ANOMALY></meanElements><tleParameters><EPHEMERIS_TYPE>0</EPHEMERIS_TYPE><CLASSIFICATION_TYPE>U</CLASSIFICATION_TYPE><NORAD_CAT_ID>45430</NORAD_CAT_ID><ELEMENT_SET_NO>999</ELEMENT_SET_NO><REV_AT_EPOCH>23022</REV_AT_EPOCH><BSTAR>-.11224E-2</BSTAR><MEAN_MOTION_DOT>-.385E-5</MEAN_MOTION_DOT><MEAN_MOTION_DDOT>0</MEAN_MOTION_DDOT></tleParameters></data></segment></body></omm>
<omm id="CCSDS_OMM_VERS" version="2.0">
<header><CREATION_DATE/><ORIGINATOR/></header><body><segment><metadata><OBJECT_NAME>ONEWEB-0031</OBJECT_NAME><OBJECT_ID>2020-020H</OBJECT_ID><CENTER_NAME>EARTH</CENTER_NAME><REF_FRAME>TEME</REF_FRAME><TIME_SYSTEM>UTC</TIME_SYSTEM><MEAN_ELEMENT_THEORY>SGP4</MEAN_ELEMENT_THEORY></metadata><data><meanElements><EPOCH>2024-12-11T11:50:45.885696</EPOCH><MEAN_MOTION>13.11414625</MEAN_MOTION><ECCENTRICITY>.0001469</ECCENTRICITY><INCLINATION>87.8899</INCLINATION><RA_OF_ASC_NODE>131.2045</RA_OF_ASC_NODE><ARG_OF_PERICENTER>101.3965</ARG_OF_PERICENTER><MEAN_ANOMALY>258.7328</MEAN_ANOMALY></meanElements><tleParameters><EPHEMERIS_TYPE>0</EPHEMERIS_TYPE><CLASSIFICATION_TYPE>U</CLASSIFICATION_TYPE><NORAD_CAT_ID>45431</NORAD_CAT_ID><ELEMENT_SET_NO>999</ELEMENT_SET_NO><REV_AT_EPOCH>23021</REV_AT_EPOCH><BSTAR>.25039E-3</BSTAR><MEAN_MOTION_DOT>.101E-5</MEAN_MOTION_DOT><MEAN_MOTION_DDOT>0</MEAN_MOTION_DDOT></tleParameters></data></segment></body></omm>
<omm id="CCSDS_OMM_VERS" version="2.0">
<header><CREATION_DATE/><ORIGINATOR/></header><body><segment><metadata><OBJECT_NAME>ONEWEB-0027</OBJECT_NAME><OBJECT_ID>2020-020J</OBJECT_ID><CENTER_NAME>EARTH</CENTER_NAME><REF_FRAME>TEME</REF_FRAME><TIME_SYSTEM>UTC</TIME_SYSTEM><MEAN_ELEMENT_THEORY>SGP4</MEAN_ELEMENT_THEORY></metadata><data><meanElements><EPOCH>2024-12-11T09:58:14.711520</EPOCH><MEAN_MOTION>13.17652211</MEAN_MOTION><ECCENTRICITY>.0001642</ECCENTRICITY><INCLINATION>87.9092</INCLINATION><RA_OF_ASC_NODE>115.9718</RA_OF_ASC_NODE><ARG_OF_PERICENTER>112.6579</ARG_OF_PERICENTER><MEAN_ANOMALY>247.4726</MEAN_ANOMALY></meanElements><tleParameters><EPHEMERIS_TYPE>0</EPHEMERIS_TYPE><CLASSIFICATION_TYPE>U</CLASSIFICATION_TYPE><NORAD_CAT_ID>45432</NORAD_CAT_ID><ELEMENT_SET_NO>999</ELEMENT_SET_NO><REV_AT_EPOCH>23356</REV_AT_EPOCH><BSTAR>.56618E-4</BSTAR><MEAN_MOTION_DOT>.35E-6</MEAN_MOTION_DOT><MEAN_MOTION_DDOT>0</MEAN_MOTION_DDOT></tleParameters></data></segment></body></omm>
<omm id="CCSDS_OMM_VERS" version="2.0">
<header><CREATION_DATE/><ORIGINATOR/></header><body><segment><metadata><OBJECT_NAME>ONEWEB-0064</OBJECT_NAME><OBJECT_ID>2020-020K</OBJECT_ID><CENTER_NAME>EARTH</CENTER_NAME><REF_FRAME>TEME</REF_FRAME><TIME_SYSTEM>UTC</TIME_SYSTEM><MEAN_ELEMENT_THEORY>SGP4</MEAN_ELEMENT_THEORY></metadata><data><meanElements><EPOCH>2024-12-11T11:48:19.269216</EPOCH><MEAN_MOTION>13.11414411</MEAN_MOTION><ECCENTRICITY>.0001375</ECCENTRICITY><INCLINATION>87.8894</INCLINATION><RA_OF_ASC_NODE>131.2061</RA_OF_ASC_NODE><ARG_OF_PERICENTER>104.3852</ARG_OF_PERICENTER><MEAN_ANOMALY>255.7428</MEAN_ANOMALY></meanElements><tleParameters><EPHEMERIS_TYPE>0</EPHEMERIS_TYPE><CLASSIFICATION_TYPE>U</CLASSIFICATION_TYPE><NORAD_CAT_ID>45433</NORAD_CAT_ID><ELEMENT_SET_NO>999</ELEMENT_SET_NO><REV_AT_EPOCH>23024</REV_AT_EPOCH><BSTAR>.52317E-3</BSTAR><MEAN_MOTION_DOT>.198E-5</MEAN_MOTION_DOT><MEAN_MOTION_DDOT>0</MEAN_MOTION_DDOT></tleParameters></data></segment></body></omm>

</ndm>
